{
  "type": "FeatureCollection",
  "features": [
    {
      "type": "Feature",
      "properties": {
        "norad_id": 43823,
        "name": "GEO-KOMPSAT-2A",
        "group": "weather",
        "lat": 0.024122441741703325,
        "lon": -156.4996455194651,
        "alt_km": 35787.74693439439,
        "timestamp": "2025-12-25T22:42:16.639709+00:00",
        "meta_object_name": "GEO-KOMPSAT-2A",
        "meta_object_id": "2018-100A",
        "meta_epoch": "2025-12-25T12:13:38.614080",
        "meta_mean_motion": 1.00268534,
        "meta_eccentricity": 2.51e-05,
        "meta_inclination": 0.0434,
        "meta_ra_of_asc_node": 172.7377,
        "meta_arg_of_pericenter": 259.9479,
        "meta_mean_anomaly": 333.2359,
        "meta_ephemeris_type": 0,
        "meta_classification_type": "U",
        "meta_norad_cat_id": 43823,
        "meta_element_set_no": 999,
        "meta_rev_at_epoch": 2588,
        "meta_bstar": 0,
        "meta_mean_motion_dot": -3.22e-06,
        "meta_mean_motion_ddot": 0,
        "tle_line1": "1 43823U 18100A   25359.50947470 -.00000322  00000+0  00000+0 0  9996",
        "tle_line2": "2 43823   0.0434 172.7377 0000251 259.9479 333.2359  1.00268534 25880"
      },
      "geometry": {
        "type": "Point",
        "coordinates": [
          -156.4996455194651,
          0.024122441741703325
        ]
      }
    },
    {
      "type": "Feature",
      "properties": {
        "norad_id": 44387,
        "name": "METEOR-M2 2",
        "group": "weather",
        "lat": 11.334027135942375,
        "lon": -21.962680781272365,
        "alt_km": 812.6694889922728,
        "timestamp": "2025-12-25T22:42:16.639720+00:00",
        "meta_object_name": "METEOR-M2 2",
        "meta_object_id": "2019-038A",
        "meta_epoch": "2025-12-25T19:16:44.091840",
        "meta_mean_motion": 14.24295925,
        "meta_eccentricity": 0.0001824,
        "meta_inclination": 98.8988,
        "meta_ra_of_asc_node": 339.6924,
        "meta_arg_of_pericenter": 123.6093,
        "meta_mean_anomaly": 236.5259,
        "meta_ephemeris_type": 0,
        "meta_classification_type": "U",
        "meta_norad_cat_id": 44387,
        "meta_element_set_no": 999,
        "meta_rev_at_epoch": 33661,
        "meta_bstar": 9.9521e-06,
        "meta_mean_motion_dot": -2.3e-07,
        "meta_mean_motion_ddot": 0,
        "tle_line1": "1 44387U 19038A   25359.80328810 -.00000023  00000+0  99521-5 0  9997",
        "tle_line2": "2 44387  98.8988 339.6924 0001824 123.6093 236.5259 14.24295925336617"
      },
      "geometry": {
        "type": "Point",
        "coordinates": [
          -21.962680781272365,
          11.334027135942375
        ]
      }
    },
    {
      "type": "Feature",
      "properties": {
        "norad_id": 47719,
        "name": "ARKTIKA-M 1",
        "group": "weather",
        "lat": 40.06220671457906,
        "lon": -122.90816064893795,
        "alt_km": 19788.912172577846,
        "timestamp": "2025-12-25T22:42:16.639733+00:00",
        "meta_object_name": "ARKTIKA-M 1",
        "meta_object_id": "2021-016A",
        "meta_epoch": "2025-12-25T00:52:45.922368",
        "meta_mean_motion": 2.00630507,
        "meta_eccentricity": 0.7210339,
        "meta_inclination": 63.177,
        "meta_ra_of_asc_node": 82.3163,
        "meta_arg_of_pericenter": 269.1694,
        "meta_mean_anomaly": 15.5374,
        "meta_ephemeris_type": 0,
        "meta_classification_type": "U",
        "meta_norad_cat_id": 47719,
        "meta_element_set_no": 999,
        "meta_rev_at_epoch": 3529,
        "meta_bstar": 0,
        "meta_mean_motion_dot": -4.3e-07,
        "meta_mean_motion_ddot": 0,
        "tle_line1": "1 47719U 21016A   25359.03664262 -.00000043  00000+0  00000+0 0  9997",
        "tle_line2": "2 47719  63.1770  82.3163 7210339 269.1694  15.5374  2.00630507 35296"
      },
      "geometry": {
        "type": "Point",
        "coordinates": [
          -122.90816064893795,
          40.06220671457906
        ]
      }
    },
    {
      "type": "Feature",
      "properties": {
        "norad_id": 49008,
        "name": "FENGYUN 3E",
        "group": "weather",
        "lat": 57.70488644937545,
        "lon": -165.59011801719853,
        "alt_km": 819.8866697512403,
        "timestamp": "2025-12-25T22:42:16.639744+00:00",
        "meta_object_name": "FENGYUN 3E",
        "meta_object_id": "2021-062A",
        "meta_epoch": "2025-12-25T17:03:44.083296",
        "meta_mean_motion": 14.19881016,
        "meta_eccentricity": 9.75e-05,
        "meta_inclination": 98.7478,
        "meta_ra_of_asc_node": 0.078,
        "meta_arg_of_pericenter": 188.608,
        "meta_mean_anomaly": 171.5079,
        "meta_ephemeris_type": 0,
        "meta_classification_type": "U",
        "meta_norad_cat_id": 49008,
        "meta_element_set_no": 999,
        "meta_rev_at_epoch": 23196,
        "meta_bstar": 3.576e-06,
        "meta_mean_motion_dot": -3.6e-07,
        "meta_mean_motion_ddot": 0,
        "tle_line1": "1 49008U 21062A   25359.71092689 -.00000036  00000+0  35760-5 0  9993",
        "tle_line2": "2 49008  98.7478   0.0780 0000975 188.6080 171.5079 14.19881016231963"
      },
      "geometry": {
        "type": "Point",
        "coordinates": [
          -165.59011801719853,
          57.70488644937545
        ]
      }
    },
    {
      "type": "Feature",
      "properties": {
        "norad_id": 51850,
        "name": "GOES 18",
        "group": "weather",
        "lat": -0.0007259425160015936,
        "lon": -61.74414933296706,
        "alt_km": 35784.39877692836,
        "timestamp": "2025-12-25T22:42:16.639759+00:00",
        "meta_object_name": "GOES 18",
        "meta_object_id": "2022-021A",
        "meta_epoch": "2025-12-25T12:22:38.764416",
        "meta_mean_motion": 1.00271349,
        "meta_eccentricity": 4.36e-05,
        "meta_inclination": 0.0208,
        "meta_ra_of_asc_node": 187.5014,
        "meta_arg_of_pericenter": 127.4929,
        "meta_mean_anomaly": 187.9384,
        "meta_ephemeris_type": 0,
        "meta_classification_type": "U",
        "meta_norad_cat_id": 51850,
        "meta_element_set_no": 999,
        "meta_rev_at_epoch": 485,
        "meta_bstar": 0,
        "meta_mean_motion_dot": 1.18e-06,
        "meta_mean_motion_ddot": 0,
        "tle_line1": "1 51850U 22021A   25359.51572644  .00000118  00000+0  00000+0 0  9992",
        "tle_line2": "2 51850   0.0208 187.5014 0000436 127.4929 187.9384  1.00271349  4858"
      },
      "geometry": {
        "type": "Point",
        "coordinates": [
          -61.74414933296706,
          -0.0007259425160015936
        ]
      }
    },
    {
      "type": "Feature",
      "properties": {
        "norad_id": 54234,
        "name": "NOAA 21 (JPSS-2)",
        "group": "weather",
        "lat": 67.52601018260104,
        "lon": 137.94201435342245,
        "alt_km": 820.5507736296777,
        "timestamp": "2025-12-25T22:42:16.639770+00:00",
        "meta_object_name": "NOAA 21 (JPSS-2)",
        "meta_object_id": "2022-150A",
        "meta_epoch": "2025-12-25T18:48:05.685696",
        "meta_mean_motion": 14.19527642,
        "meta_eccentricity": 0.0001616,
        "meta_inclination": 98.7478,
        "meta_ra_of_asc_node": 295.9299,
        "meta_arg_of_pericenter": 10.9996,
        "meta_mean_anomaly": 349.1215,
        "meta_ephemeris_type": 0,
        "meta_classification_type": "U",
        "meta_norad_cat_id": 54234,
        "meta_element_set_no": 999,
        "meta_rev_at_epoch": 16194,
        "meta_bstar": 6.8925e-05,
        "meta_mean_motion_dot": 1.01e-06,
        "meta_mean_motion_ddot": 0,
        "tle_line1": "1 54234U 22150A   25359.78339914  .00000101  00000+0  68925-4 0  9991",
        "tle_line2": "2 54234  98.7478 295.9299 0001616  10.9996 349.1215 14.19527642161943"
      },
      "geometry": {
        "type": "Point",
        "coordinates": [
          137.94201435342245,
          67.52601018260104
        ]
      }
    },
    {
      "type": "Feature",
      "properties": {
        "norad_id": 54743,
        "name": "METEOSAT-12 (MTG-I1)",
        "group": "weather",
        "lat": 0.5474272971766856,
        "lon": 74.93887573134178,
        "alt_km": 35793.14170335127,
        "timestamp": "2025-12-25T22:42:16.639819+00:00",
        "meta_object_name": "METEOSAT-12 (MTG-I1)",
        "meta_object_id": "2022-170C",
        "meta_epoch": "2025-12-25T16:29:22.504128",
        "meta_mean_motion": 1.00270898,
        "meta_eccentricity": 0.0001666,
        "meta_inclination": 0.7002,
        "meta_ra_of_asc_node": 25.7407,
        "meta_arg_of_pericenter": 241.4099,
        "meta_mean_anomaly": 74.3134,
        "meta_ephemeris_type": 0,
        "meta_classification_type": "U",
        "meta_norad_cat_id": 54743,
        "meta_element_set_no": 999,
        "meta_rev_at_epoch": 1123,
        "meta_bstar": 0,
        "meta_mean_motion_dot": 1.4e-07,
        "meta_mean_motion_ddot": 0,
        "tle_line1": "1 54743U 22170C   25359.68706602  .00000014  00000+0  00000+0 0  9997",
        "tle_line2": "2 54743   0.7002  25.7407 0001666 241.4099  74.3134  1.00270898 11231"
      },
      "geometry": {
        "type": "Point",
        "coordinates": [
          74.93887573134178,
          0.5474272971766856
        ]
      }
    }
  ]
}